STARLINK-2120
1 27398C 21005BB  21325.16632604  .00009528  00000-0  63830-3 0  3250
2 27398  53.0521 237.4834 0002387  62.7083  33.5382 15.06393402    14
